2023-007C               
1 55250U 23007C   23038.15736171  .00021041  00000+0  82717-3 0  9991
2 55250  97.3746 112.2786 0008530 169.6566 274.1279 15.25660262  3502
2023-007D               
1 55251U 23007D   23038.15651090  .00020492  00000+0  80458-3 0  9997
2 55251  97.3797 112.2955 0008966 172.7080 271.1250 15.25704282  3503
2023-007E               
1 55252U 23007E   23038.24608080 -.00017470  00000+0 -78464-3 0  9997
2 55252  97.3698 112.3094 0008263 197.0077 247.2742 15.21085214  3519
2023-007F               
1 55253U 23007F   23038.37329630 -.01017019  00000+0 -51530-1 0  9996
2 55253  97.3698 112.4633 0003768  72.3773  59.1439 15.19904283  3531
2023-007G               
1 55254U 23007G   23038.15480704  .00014994  00000+0  59031-3 0  9995
2 55254  97.3784 112.2937 0008665 179.0450 264.7047 15.25684206  3504
2023-007H               
1 55255U 23007H   23038.48067618  .00026810  00000+0  10242-2 0  9997
2 55255  97.3717 112.6149 0008986 188.3334 293.1908 15.26561592  3550
2023-007J               
1 55256U 23007J   23037.29617968  .00019094  00000+0  73930-3 0  9995
2 55256  97.3754 111.4526 0008533 193.5707 251.3253 15.26188081  3375
2023-007K               
1 55257U 23007K   23038.15087774  .00009817  00000+0  38616-3 0  9992
2 55257  97.3747 112.2857 0008414 191.0710 252.7246 15.25820382  3507
2023-007L               
1 55258U 23007L   23038.14864041  .00012553  00000+0  48949-3 0  9993
2 55258  97.3757 112.2934 0008107 193.5328 251.3267 15.26048623  3505
2023-007M               
1 55259U 23007M   23038.14489608  .00011260  00000+0  43626-3 0  9997
2 55259  97.3708 112.2852 0008284 203.2429 243.5557 15.26288413  3506
2023-007N               
1 55260U 23007N   23038.18793573  .00016138  00000+0  60749-3 0  9996
2 55260  97.3715 112.3551 0008209 221.0048 164.4672 15.27163057  3512
2023-007P               
1 55261U 23007P   23038.40268781  .00013024  00000+0  49102-3 0  9991
2 55261  97.3713 112.5671 0009122 222.9578 267.8090 15.27154966  3543
USA 342                 
1 55263U 23008A   23037.50069444  .00000060  00000+0  00000+0 0  9995
2 55263   0.0054 359.9998 0003091 164.1565  21.2595  1.00392016   214
NAVSTAR 82 (USA 343)    
1 55268U 23009A   23037.44981036  .00000038  00000+0  00000+0 0  9999
2 55268  55.1005 196.6460 0008175  98.0102 262.0434  2.00570483   658
STARLINK-5277           
1 55269U 23010A   23038.33334491  .00073783  00000+0  61110-3 0  9998
2 55269  69.9985  16.0695 0003532 272.8331 300.8730 15.69879931  3463
STARLINK-5301           
1 55270U 23010B   23038.33334491  .00071453  00000+0  59184-3 0  9990
2 55270  69.9991  16.0709 0003488 273.5597 298.3549 15.69887673  3461
STARLINK-5306           
1 55271U 23010C   23038.33334491  .00104454  00000+0  86173-3 0  9997
2 55271  69.9982  16.0699 0003357 271.9403 301.1639 15.69866892  3466
STARLINK-5310           
1 55272U 23010D   23038.33334491  .00067998  00000+0  56351-3 0  9994
2 55272  69.9989  16.0716 0003368 273.2958 298.0230 15.69889468  3461
STARLINK-5291           
1 55273U 23010E   23038.33334491  .00071084  00000+0  58886-3 0  9991
2 55273  69.9999  16.0680 0003489 271.0317 303.8636 15.69885880  3461
STARLINK-5236           
1 55274U 23010F   23038.25001157 -.00006559  00000+0 -52821-4 0  9994
2 55274  69.9988  16.3012 0003569 273.0768 191.5686 15.69922007  3441
STARLINK-5260           
1 55275U 23010G   23038.33334491  .00060811  00000+0  50460-3 0  9999
2 55275  69.9988  16.0663 0003408 273.5416 302.5439 15.69887876  3464
STARLINK-5261           
1 55276U 23010H   23038.25001157 -.00035760  00000+0 -29667-3 0  9993
2 55276  69.9990  16.2983 0003491 272.8491 194.1676 15.69941720  3447
STARLINK-5299           
1 55277U 23010J   23038.25001157 -.00024512  00000+0 -20260-3 0  9997
2 55277  69.9982  16.3001 0003480 271.8400 193.9925 15.69932498  3444
STARLINK-5289           
1 55278U 23010K   23038.33334491  .00059446  00000+0  49325-3 0  9992
2 55278  69.9995  16.0616 0003331 271.8260 307.8291 15.69895235  3468
STARLINK-5323           
1 55279U 23010L   23038.25001157 -.00028294  00000+0 -23421-3 0  9992
2 55279  69.9985  16.2994 0003487 271.6127 194.8135 15.69935429  3440
STARLINK-5331           
1 55280U 23010M   23038.25001157 -.00080173  00000+0 -67004-3 0  9993
2 55280  69.9979  16.2953 0003284 272.4711 196.9108 15.69971902  3442
STARLINK-5298           
1 55281U 23010N   23038.25001157 -.00050856  00000+0 -42327-3 0  9990
2 55281  69.9990  16.2980 0003363 272.4913 195.1172 15.69950586  3445
STARLINK-5330           
1 55282U 23010P   23038.25001157 -.00083088  00000+0 -69463-3 0  9994
2 55282  69.9990  16.2932 0003450 271.5372 199.6300 15.69973780  3442
STARLINK-5317           
1 55283U 23010Q   23038.25001157 -.00047940  00000+0 -39877-3 0  9998
2 55283  69.9988  16.2973 0003399 271.8372 196.3664 15.69949835  3441
STARLINK-5337           
1 55284U 23010R   23038.25001157 -.00104652  00000+0 -87708-3 0  9999
2 55284  69.9986  16.2918 0003562 274.3242 198.0273 15.69987681  3441
STARLINK-5332           
1 55285U 23010S   23038.00001157 -.00884124  00000+0 -73226-2 0  9991
2 55285  69.9967  16.8625 0003417 262.6445 348.9656 15.72494935  3413
STARLINK-5338           
1 55286U 23010T   23038.25001157 -.00091960  00000+0 -76952-3 0  9997
2 55286  69.9960  16.2922 0003585 268.5528 203.2059 15.69981758  3447
STARLINK-5341           
1 55287U 23010U   23038.33334491  .00005082  00000+0  43999-4 0  9991
2 55287  69.9994  16.0596 0003321 271.4442 309.9785 15.69929018  3469
STARLINK-5311           
1 55288U 23010V   23038.33334491 -.00021590  00000+0 -17811-3 0  9999
2 55288  69.9975  16.0523 0003566 279.3525 308.0214 15.69940559  3469
STARLINK-5320           
1 55289U 23010W   23038.33334491  .00022940  00000+0  19210-3 0  9993
2 55289  69.9982  16.0561 0003474 277.7709 306.6376 15.69914414  3468
STARLINK-5266           
1 55290U 23010X   23038.33334491  .00004288  00000+0  37418-4 0  9991
2 55290  69.9963  16.0544 0003477 275.3390 310.2583 15.69922980  3461
STARLINK-5327           
1 55291U 23010Y   23038.33334491  .00009763  00000+0  82879-4 0  9996
2 55291  69.9982  16.0552 0003468 274.1942 310.8081 15.69920345  3464
STARLINK-5325           
1 55292U 23010Z   23038.33334491 -.00029896  00000+0 -24751-3 0  9992
2 55292  69.9989  16.0515 0003554 275.0709 312.8961 15.69945884  3462
STARLINK-5287           
1 55293U 23010AA  23038.33334491 -.00000709  00000+0 -41268-5 0  9999
2 55293  69.9974  16.0532 0003519 271.9820 314.8040 15.69926610  3462
STARLINK-5286           
1 55294U 23010AB  23038.33334491  .00044793  00000+0  37263-3 0  9997
2 55294  69.9990  16.0598 0003361 276.0173 304.8235 15.69902726  3462
STARLINK-5293           
1 55295U 23010AC  23038.33334491  .00104584  00000+0  86268-3 0  9992
2 55295  69.9991  16.0699 0003399 271.4503 301.0578 15.69869768  3460
STARLINK-5285           
1 55296U 23010AD  23038.33334491 -.00035159  00000+0 -29150-3 0  9993
2 55296  69.9973  16.0484 0003608 270.8804 319.4631 15.69951434  3468
STARLINK-5284           
1 55297U 23010AE  23038.33334491 -.00024683  00000+0 -20395-3 0  9996
2 55297  69.9977  16.0508 0003555 272.6874 315.8778 15.69941931  3461
STARLINK-5272           
1 55298U 23010AF  23038.33334491 -.00044904  00000+0 -37311-3 0  9991
2 55298  69.9979  16.0477 0003676 274.3416 316.5931 15.69958418  3461
STARLINK-5270           
1 55299U 23010AG  23038.33334491 -.00030534  00000+0 -25284-3 0  9992
2 55299  69.9975  16.0501 0003577 272.7714 316.3867 15.69946119  3460
STARLINK-5308           
1 55300U 23010AH  23038.33334491 -.00070098  00000+0 -58475-3 0  9992
2 55300  69.9982  16.0471 0003652 270.1030 321.4158 15.69976778  3468
STARLINK-5321           
1 55302U 23010AK  23038.58334491 -.00077526  00000+0 -64803-3 0  9996
2 55302  69.9980  15.3428 0003588 271.6698 292.9725 15.69956415  3509
STARLINK-5322           
1 55303U 23010AL  23038.33334491  .00018776  00000+0  15762-3 0  9990
2 55303  69.9983  16.0565 0003453 273.1458 310.6671 15.69916088  3460
STARLINK-5318           
1 55304U 23010AM  23038.33334491 -.00081258  00000+0 -67885-3 0  9991
2 55304  69.9984  16.0456 0003594 272.1353 320.5717 15.69983499  3461
STARLINK-5316           
1 55305U 23010AN  23038.33334491  .00070063  00000+0  58061-3 0  9998
2 55305  69.9981  16.0675 0003467 273.4147 300.8870 15.69881452  3463
STARLINK-5295           
1 55306U 23010AP  23038.00001157 -.00881351  00000+0 -78301-2 0  9993
2 55306  69.9986  16.9820 0003521 265.9566 243.8750 15.70831630  3415
STARLINK-5288           
1 55307U 23010AQ  23038.00001157 -.00874145  00000+0 -77643-2 0  9995
2 55307  69.9975  16.9834 0003189 269.5317 239.7171 15.70820198  3411
STARLINK-5292           
1 55308U 23010AR  23038.00001157 -.00883162  00000+0 -78355-2 0  9996
2 55308  69.9964  16.9793 0003543 266.9536 245.1935 15.70868927  3413
STARLINK-5315           
1 55309U 23010AS  23038.58334491 -.00033289  00000+0 -27599-3 0  9992
2 55309  69.9984  15.3404 0003323 271.8551 295.1638 15.69940015  3508
STARLINK-5309           
1 55310U 23010AT  23038.58334491 -.00069070  00000+0 -57684-3 0  9999
2 55310  69.9973  15.3384 0003599 271.1491 297.0780 15.69945103  3508
STARLINK-5312           
1 55311U 23010AU  23038.33334491 -.00138720  00000+0 -11670-2 0  9996
2 55311  69.9979  16.0429 0003373 277.2105 317.8647 15.70007017  3465
STARLINK-5296           
1 55312U 23010AV  23038.00001157 -.00770949  00000+0 -29476-2 0  9999
2 55312  70.0003  15.9901 0003687 259.3654  12.0877 15.88905901  3432
STARLINK-5313           
1 55313U 23010AW  23038.00001157 -.00880428  00000+0 -78055-2 0  9991
2 55313  69.9989  16.9787 0003574 269.2199 243.5046 15.70878161  3410
STARLINK-5305           
1 55314U 23010AX  23038.00001157 -.00884010  00000+0 -78319-2 0  9996
2 55314  69.9972  16.9764 0003521 266.6067 247.8559 15.70905379  3413
